STARLINK-4098           
1 53153U 22083X   24097.65226841  .00000791  00000+0  67779-4 0  9994
2 53153  53.2177  75.6857 0001400  92.5649 267.5503 15.08839298 95377
STARLINK-4077           
1 53154U 22083Y   24097.65962525  .00001447  00000+0  10897-3 0  9998
2 53154  53.2175  75.6531 0001337  88.9767 271.1379 15.08844533 95374
STARLINK-4088           
1 53155U 22083Z   24097.64490619  .00000956  00000+0  78141-4 0  9999
2 53155  53.2196  75.7221 0001623  95.8306 264.2871 15.08841724 96010
STARLINK-4087           
1 53156U 22083AA  24097.63385067  .00001273  00000+0  98088-4 0  9994
2 53156  53.2180  75.6465 0001455  98.2955 261.8202 15.08838374 95379
STARLINK-4093           
1 53157U 22083AB  24097.63754747  .00000224  00000+0  32200-4 0  9999
2 53157  53.2198  75.7571 0001591  96.9182 263.1992 15.08838747 95371
STARLINK-4054           
1 53158U 22083AC  24097.64858986  .00000545  00000+0  52314-4 0  9995
2 53158  53.2182  75.7049 0001447  90.5509 269.5649 15.08837863 95375
STARLINK-4111           
1 53159U 22083AD  24097.96139201 -.00000768  00000+0 -30183-4 0  9992
2 53159  53.2182  74.3008 0001443  89.6654 270.4504 15.08832543 95429
STARLINK-4096           
1 53160U 22083AE  24097.64122876 -.00000271  00000+0  10421-5 0  9991
2 53160  53.2192  75.7394 0001598  99.8325 260.2847 15.08839767 95370
STARLINK-4055           
1 53161U 22083AF  24097.95034864 -.00000879  00000+0 -37116-4 0  9999
2 53161  53.2185  74.3492 0001313  92.3774 267.7368 15.08839386 95421
STARLINK-4114           
1 53162U 22083AG  24097.63482725  .00000689  00000+0  61362-4 0  9995
2 53162  53.2176  75.7752 0001354  89.9203 270.1944 15.08837430 95370
STARLINK-4104           
1 53163U 22083AH  24097.95772831 -.00000349  00000+0 -38611-5 0  9998
2 53163  53.2168  74.4595 0001299  91.7838 268.3303 15.08833905 95423
STARLINK-4116           
1 53164U 22083AJ  24097.95402728 -.00000109  00000+0  11216-4 0  9998
2 53164  53.2159  74.3305 0001563  86.7435 273.3736 15.08849245 95423
STARLINK-4090           
1 53165U 22083AK  24097.67434677  .00000378  00000+0  41832-4 0  9990
2 53165  53.2178  75.5881 0001872  96.4502 263.6704 15.08839204 95389
STARLINK-4110           
1 53166U 22083AL  24097.94667181  .00000270  00000+0  35063-4 0  9999
2 53166  53.2181  74.3657 0001633  78.7263 281.3913 15.08849275 95427
STARLINK-3683           
1 53167U 22083AM  24097.62604730  .00000634  00000+0  57914-4 0  9999
2 53167  53.2162  60.7929 0001520  95.8502 264.2664 15.08838313 95579
STARLINK-4105           
1 53168U 22083AN  24097.94298504  .00002895  00000+0  19994-3 0  9999
2 53168  53.2176  74.3823 0001522  97.4461 262.6704 15.08833923 95426
STARLINK-4117           
1 53169U 22083AP  24097.60399321 -.00003161  00000+0 -18064-3 0  9998
2 53169  53.2178  61.1647 0001403  89.0564 271.0588 15.08831075 95561
STARLINK-4095           
1 53170U 22083AQ  24097.63984289  .00000775  00000+0  66774-4 0  9994
2 53170  53.2178  70.6936 0001381  86.9558 273.1592 15.08840270 95445
STARLINK-4052           
1 53171U 22083AR  24097.87948310  .00001274  00000+0  98154-4 0  9998
2 53171  53.2184  44.4287 0001441 107.1666 252.9484 15.08828966 95829
STARLINK-4299           
1 53172U 22083AS  24097.89743430  .00000998  00000+0  80795-4 0  9991
2 53172  53.2189  69.5042 0001702  94.7813 265.3374 15.08840091 95477
STARLINK-4300           
1 53173U 22083AT  24097.85144632  .00002730  00000+0  18953-3 0  9999
2 53173  53.2163  49.7846 0001606  84.3377 275.7798 15.08842538 95748
STARLINK-4205           
1 53174U 22083AU  24097.93933540  .00000855  00000+0  71819-4 0  9990
2 53174  53.2156  84.3311 0002049  83.9283 276.1942 15.08856366 95274
STARLINK-4292           
1 53175U 22083AV  24097.94206933  .00000714  00000+0  62964-4 0  9996
2 53175  53.2173  84.3866 0001376  94.6135 265.5014 15.08836092 95272
STARLINK-4294           
1 53176U 22083AW  24097.61499977 -.00000239  00000+0  30761-5 0  9997
2 53176  53.2180  60.7637 0001422  85.2673 274.8482 15.08841627 95575
STARLINK-4298           
1 53177U 22083AX  24097.24792922  .00001208  00000+0  93998-4 0  9999
2 53177  53.2195  52.4952 0001637  92.3937 267.7242 15.08840953 96296
STARLINK-4280           
1 53178U 22083AY  24097.93564854 -.00001396  00000+0 -69675-4 0  9992
2 53178  53.2166  74.4152 0001442  88.7606 271.3551 15.08823011 95409
STARLINK-4276           
1 53179U 22083AZ  24097.53077491  .00003212  00000+0  21973-3 0  9990
2 53179  53.2188  35.8325 0001436  97.4510 262.6646 15.08848611 96559
STARLINK-4258           
1 53180U 22083BA  24097.55656891  .00001406  00000+0  10637-3 0  9999
2 53180  53.2173  35.9893 0001501  81.2353 278.8810 15.08847833 96552
STARLINK-4273           
1 53181U 22083BB  24097.54920621  .00000866  00000+0  72483-4 0  9991
2 53181  53.2192  35.9480 0001597  89.9859 270.1317 15.08842653 96559
STARLINK-4278           
1 53182U 22083BC  24097.57544185  .00001550  00000+0  11547-3 0  9996
2 53182  53.2190  51.0248 0001533  95.6641 264.4526 15.08845648 96344
STARLINK-4268           
1 53183U 22083BD  24097.84867998  .00002511  00000+0  17581-3 0  9999
2 53183  53.2184  39.7180 0001478  87.9490 272.1671 15.08838067 95882
STARLINK-4257           
1 53184U 22083BE  24097.79205727  .00001244  00000+0  96253-4 0  9996
2 53184  53.2180  34.6479 0001342  97.2789 262.8356 15.08840780 95969
STARLINK-4391           
1 53189U 22084A   24097.40415399  .00001666  00000+0  13425-3 0  9995
2 53189  97.6547 159.2450 0004124 213.6585 146.4378 15.01268259 94626
STARLINK-4332           
1 53190U 22084B   24097.89826030  .00000065  00000+0  96277-5 0  9998
2 53190  97.6546 159.7431 0001476  93.7038 266.4355 15.01262335 94692
STARLINK-4369           
1 53191U 22084C   24097.92602769  .00000219  00000+0  21675-4 0  9994
2 53191  97.6586 159.7778 0000555 236.3817 123.7354 15.01261566 94024
STARLINK-4375           
1 53192U 22084D   24097.92417364  .00001474  00000+0  11939-3 0  9995
2 53192  97.6588 159.7783 0000550 256.5004 103.6159 15.01250154 94694
STARLINK-4351           
1 53193U 22084E   24097.92972957 -.00001281  00000+0 -95120-4 0  9993
2 53193  97.6565 159.7780 0002244 213.0402 147.0682 15.01265178 95044
STARLINK-4382           
1 53194U 22084F   24097.92788245  .00000290  00000+0  27143-4 0  9996
2 53194  97.6571 159.7776 0000279 116.1398 243.9855 15.01259933 94027
STARLINK-4404           
1 53195U 22084G   24097.91492421  .00000719  00000+0  60607-4 0  9992
2 53195  97.6564 159.7961 0001807  92.5825 267.5606 15.01254679 94697
STARLINK-4407           
1 53196U 22084H   24097.91677515 -.00000685  00000+0 -48725-4 0  9993
2 53196  97.6568 159.7972 0000998  91.6633 268.4705 15.01265287 94687
STARLINK-4403           
1 53197U 22084J   24097.91871445 -.00011156  00000+0 -86693-3 0  9992
2 53197  97.6573 159.7805 0003164  92.6213 267.5374 15.01185095 94020
STARLINK-4385           
1 53198U 22084K   24097.92232728  .00000765  00000+0  64171-4 0  9999
2 53198  97.6584 159.7796 0000290 145.8480 214.2763 15.01260222 94685
STARLINK-4395           
1 53199U 22084L   24097.92047949  .00000522  00000+0  45272-4 0  9991
2 53199  97.6590 159.7713 0000467 182.1107 178.0115 15.01255305 94020
STARLINK-4417           
1 53200U 22084M   24097.91701826  .00000861  00000+0  71654-4 0  9993
2 53200  97.6570 159.7877 0000239 205.5146 154.6066 15.01257271 94683
STARLINK-4405           
1 53201U 22084N   24097.90775880  .00000546  00000+0  47082-4 0  9992
2 53201  97.6537 159.7834 0001322  90.1747 269.9629 15.01263235 94029
STARLINK-4411           
1 53202U 22084P   24097.91307150  .00001025  00000+0  84370-4 0  9999
2 53202  97.6579 159.7870 0001659  91.2254 268.9161 15.01259301 94023
STARLINK-4409           
1 53203U 22084Q   24097.90937394 -.00000129  00000+0 -54428-5 0  9996
2 53203  97.6558 159.7732 0001794  94.8914 265.2515 15.01252381 94024
STARLINK-4410           
1 53204U 22084R   24097.91331962  .00000165  00000+0  17428-4 0  9993
2 53204  97.6561 159.7814 0001761  94.7607 265.3818 15.01259257 94680
STARLINK-4397           
1 53205U 22084S   24097.90566603 -.00000783  00000+0 -56355-4 0  9995
2 53205  97.6537 159.7660 0001506  93.5881 266.5515 15.01261012 94028
STARLINK-4408           
1 53206U 22084T   24097.89455793  .00001097  00000+0  90005-4 0  9998
2 53206  97.6541 159.7800 0001513  95.7566 264.3831 15.01253040 94021
STARLINK-4413           
1 53207U 22084U   24097.90381492 -.00000144  00000+0 -66430-5 0  9995
2 53207  97.6531 159.7615 0001634  95.0422 265.0988 15.01260458 94025
STARLINK-4425           
1 53208U 22084V   24097.91121432  .00002256  00000+0  18014-3 0  9990
2 53208  97.6573 159.7766 0001954  91.1278 269.0170 15.01266924 94021
STARLINK-4423           
1 53209U 22084W   24097.90220969 -.00000010  00000+0  38226-5 0  9991
2 53209  97.6539 159.7580 0001874  91.8843 268.2595 15.01259866 94023
STARLINK-4427           
1 53210U 22084X   24097.90751847  .00001505  00000+0  12176-3 0  9990
2 53210  97.6565 159.7708 0002121  84.9182 275.2284 15.01257001 94562
STARLINK-4419           
1 53211U 22084Y   24097.89665761  .00001177  00000+0  96187-4 0  9998
2 53211  97.6540 159.7526 0001603  95.2767 264.8640 15.01256702 94547
STARLINK-4416           
1 53212U 22084Z   24097.90195867  .00005808  00000+0  45619-3 0  9994
2 53212  97.6533 159.7584 0000789  98.5892 261.5421 15.01275575 94026
STARLINK-4414           
1 53213U 22084AA  24097.89269739 -.00004127  00000+0 -31698-3 0  9990
2 53213  97.6543 159.7431 0001563  93.8461 266.2942 15.01249693 94549
STARLINK-4353           
1 53214U 22084AB  24097.90011098 -.00000108  00000+0 -38074-5 0  9998
2 53214  97.6537 159.7547 0001756  88.7328 271.4097 15.01258512 94022
STARLINK-4335           
1 53215U 22084AC  24097.89085572  .00000203  00000+0  20384-4 0  9993
2 53215  97.6547 159.7411 0001123  96.8551 263.2801 15.01259524 94543
